1 14780U 84021A   07179.60896419 -.00000036  00000-0  21460-5 0  1891
2 14780  98.1935 247.8724 0007123 166.1581 193.9821 14.57131948240598
1 14780U 84021A   07179.81497005 -.00000113  00000-0 -15068-4 0  1907
2 14780  98.1940 248.0754 0007128 165.5114 194.6258 14.57131348240620
1 14780U 84021A   07180.15831500 -.00000558  00000-0 -11379-3 0  1901
2 14780  98.1942 248.4134 0007192 163.6519 196.4845 14.57128766240674
1 14780U 84021A   07180.50166141 -.00000897  00000-0 -18900-3 0  1916
2 14780  98.1941 248.7510 0007245 162.4446 197.6986 14.57126584240720
1 14780U 84021A   07180.70766852 -.00001251  00000-0 -26747-3 0  1927
2 14780  98.1942 248.9540 0007199 162.5819 197.5570 14.57124422240759
1 14780U 84021A   07180.91367670 -.00001594  00000-0 -34357-3 0  1932
2 14780  98.1944 249.1568 0007199 162.5111 197.6259 14.57121948240787
1 14780U 84021A   07181.11968560 -.00001923  00000-0 -41659-3 0  1939
2 14780  98.1946 249.3596 0007266 161.5597 198.5802 14.57119620240816
1 14780U 84021A   07181.53170385 -.00002376  00000-0 -51717-3 0  1945
2 14780  98.1944 249.7648 0007251 159.9194 200.2271 14.57115749240879
1 14780U 84021A   07181.87505196 -.00002627  00000-0 -57311-3 0  1950
2 14780  98.1940 250.1023 0007210 159.6366 200.5112 14.57112945240929
1 14780U 84021A   07182.14973020 -.00002630  00000-0 -57366-3 0  1961
2 14780  98.1940 250.3725 0007234 159.2557 200.8976 14.57112018240960
1 14780U 84021A   07182.42440797 -.00002635  00000-0 -57484-3 0  1979
2 14780  98.1940 250.6426 0007226 158.4710 201.6805 14.57110699241003
1 14780U 84021A   07182.76775598 -.00002393  00000-0 -52117-3 0  1986
2 14780  98.1940 250.9805 0007452 156.7785 203.3813 14.57110443241051
1 14780U 84021A   07183.11110217 -.00001980  00000-0 -42934-3 0  1995
2 14780  98.1937 251.3181 0007268 155.7525 204.4051 14.57111203241102
1 14780U 84021A   07183.52311741 -.00001477  00000-0 -31783-3 0  2009
2 14780  98.1936 251.7235 0007263 155.8391 204.3168 14.57112348241167
1 14780U 84021A   07183.79779546 -.00000859  00000-0 -18060-3 0  2016
2 14780  98.1938 251.9940 0007399 153.2448 206.9227 14.57114655241201
1 14780U 84021A   07183.93513262 -.00000669  00000-0 -13835-3 0  2028
2 14780  98.1940 252.1290 0007245 152.6128 207.5473 14.57115306241229
1 14780U 84021A   07184.07247115 -.00000579  00000-0 -11841-3 0  2020
2 14780  98.1939 252.2640 0007212 151.9717 208.1879 14.57115547241243
1 14780U 84021A   07184.48448515 -.00000027  00000-0  39947-5 0  2039
2 14780  98.1938 252.6697 0007366 152.7504 207.4092 14.57117913241306
1 14780U 84021A   07184.82783140  .00000024  00000-0  15354-4 0  2045
2 14780  98.1937 253.0074 0007378 151.4689 208.6910 14.57118142241354
1 14780U 84021A   07185.17117799  .00000088  00000-0  29498-4 0  2050
2 14780  98.1936 253.3455 0007434 150.6440 209.5199 14.57118570241408
1 14780U 84021A   07185.44585471  .00000141  00000-0  41275-4 0  2064
2 14780  98.1935 253.6158 0007479 150.0907 210.0736 14.57118912241449
1 14780U 84021A   07185.78920069  .00000110  00000-0  34455-4 0  2076
2 14780  98.1934 253.9536 0007473 149.0170 211.1459 14.57118834241497
1 14780U 84021A   07186.13254743  .00000125  00000-0  37823-4 0  2084
2 14780  98.1932 254.2914 0007514 148.1481 212.0188 14.57119028241541
1 14780U 84021A   07186.33855493  .00000115  00000-0  35524-4 0  2091
2 14780  98.1931 254.4941 0007537 147.7966 212.3695 14.57119002241571
1 14780U 84021A   07186.47589345  .00000094  00000-0  30835-4 0  2104
2 14780  98.1931 254.6291 0007547 147.4222 212.7442 14.57118956241597
1 14780U 84021A   07186.68190127  .00000081  00000-0  28119-4 0  2112
2 14780  98.1932 254.8318 0007528 146.6962 213.4708 14.57118946241627
1 14780U 84021A   07186.88790915  .00000096  00000-0  31446-4 0  2129
2 14780  98.1932 255.0345 0007506 145.9558 214.2116 14.57118991241654
1 14780U 84021A   07187.16258645  .00000103  00000-0  33020-4 0  2129
2 14780  98.1927 255.3050 0007513 145.3126 214.8583 14.57119201241690
1 14780U 84021A   07187.43726308  .00000098  00000-0  31880-4 0  2131
2 14780  98.1926 255.5751 0007551 144.6013 215.5686 14.57119225241731
1 14780U 84021A   07187.84927848  .00000045  00000-0  20130-4 0  2147
2 14780  98.1928 255.9806 0007597 143.4874 216.6832 14.57119069241797
1 14780U 84021A   07188.19262505  .00000034  00000-0  17618-4 0  2154
2 14780  98.1927 256.3185 0007616 142.6139 217.5598 14.57119111241841
1 14780U 84021A   07188.39863268  .00000022  00000-0  14921-4 0  2161
2 14780  98.1927 256.5211 0007635 142.0426 218.1309 14.57119065241875
1 14780U 84021A   07188.74197879 -.00000002  00000-0  96337-5 0  2170
2 14780  98.1929 256.8591 0007616 140.9688 219.2049 14.57119018241924
1 14780U 84021A   07188.87931755 -.00000017  00000-0  62204-5 0  2186
2 14780  98.1928 256.9941 0007610 140.4047 219.7696 14.57118871241942
1 14780U 84021A   07189.15399476  .00000042  00000-0  19474-4 0  2183
2 14780  98.1925 257.2644 0007586 139.5545 220.6234 14.57119294241980
1 14780U 84021A   07189.42867144  .00000021  00000-0  14833-4 0  2197
2 14780  98.1925 257.5346 0007604 138.8473 221.3296 14.57119210242025
1 14780U 84021A   07189.77201758  .00000017  00000-0  13836-4 0  2207
2 14780  98.1926 257.8725 0007652 137.8543 222.3236 14.57119229242070
1 14780U 84021A   07190.04669482  .00000013  00000-0  12924-4 0  2215
2 14780  98.1926 258.1426 0007674 137.1383 223.0416 14.57119189242119
1 14780U 84021A   07190.45871032 -.00000035  00000-0  22612-5 0  2228
2 14780  98.1926 258.5478 0007675 136.0512 224.1299 14.57119045242171
1 14780U 84021A   07190.45871032 -.00000035  00000-0  22612-5 0  2239
2 14780  98.1926 258.5478 0007675 136.0512 224.1299 14.57119045242171
1 14780U 84021A   07190.73338733 -.00000062  00000-0 -36782-5 0  2241
2 14780  98.1927 258.8181 0007679 135.2297 224.9521 14.57118932242216
1 14780U 84021A   07191.14540288 -.00000039  00000-0  13217-5 0  2259
2 14780  98.1929 259.2233 0007675 133.9166 226.2674 14.57119096242279
1 14780U 84021A   07191.48874918 -.00000034  00000-0  24814-5 0  2267
2 14780  98.1929 259.5610 0007684 132.9132 227.2722 14.57119103242323
1 14780U 84021A   07191.76342602 -.00000010  00000-0  78898-5 0  2274
2 14780  98.1931 259.8315 0007745 132.1799 228.0062 14.57119196242362
1 14780U 84021A   07192.10677226  .00000007  00000-0  11521-4 0  2281
2 14780  98.1933 260.1693 0007760 131.1090 229.0784 14.57119274242413
1 14780U 84021A   07192.45011823  .00000003  00000-0  10754-4 0  2298
2 14780  98.1931 260.5069 0007753 130.2872 229.9007 14.57119349242467
1 14780U 84021A   07192.86213356 -.00000051  00000-0 -11557-5 0  2308
2 14780  98.1936 260.9126 0007760 128.8634 231.3233 14.57119011242528
1 14780U 84021A   07193.13681087  .00000003  00000-0  10629-4 0  2313
2 14780  98.1935 261.1826 0007744 128.2785 231.9128 14.57119389242561
1 14780U 84021A   07193.41148746  .00000013  00000-0  12851-4 0  2325
2 14780  98.1938 261.4529 0007759 127.3539 232.8363 14.57119414242605
1 14780U 84021A   07193.41148746  .00000013  00000-0  12851-4 0  2336
2 14780  98.1938 261.4529 0007759 127.3539 232.8363 14.57119414242605
1 14780U 84021A   07193.75483352  .00000001  00000-0  10350-4 0  2348
2 14780  98.1937 261.7906 0007793 126.5985 233.5926 14.57119408242651
1 14780U 84021A   07193.96084130 -.00000001  00000-0  99329-5 0  2358
2 14780  98.1937 261.9932 0007816 126.0573 234.1343 14.57119339242682
1 14780U 84021A   07194.09817990 -.00000010  00000-0  79197-5 0  2352
2 14780  98.1935 262.1283 0007811 125.4843 234.7084 14.57119334242706
1 14780U 84021A   07194.44152558  .00000038  00000-0  18528-4 0  2363
2 14780  98.1935 262.4659 0007820 124.9109 235.2826 14.57119703242750
1 14780U 84021A   07194.85354071 -.00000012  00000-0  73745-5 0  2379
2 14780  98.1938 262.8715 0007835 123.7284 236.4645 14.57119477242814
1 14780U 84021A   07195.19688710  .00000044  00000-0  19879-4 0  2389
2 14780  98.1937 263.2093 0007847 123.1129 237.0842 14.57119829242864
1 14780U 84021A   07195.40289437  .00000034  00000-0  17537-4 0  2395
2 14780  98.1937 263.4119 0007859 122.5390 237.6565 14.57119790242899
1 14780U 84021A   07195.74624033  .00000034  00000-0  17620-4 0  2402
2 14780  98.1936 263.7497 0007864 121.5469 238.6493 14.57119850242946
1 14780U 84021A   07195.88357885  .00000027  00000-0  15960-4 0  2413
2 14780  98.1939 263.8849 0007884 121.1097 239.0869 14.57119767242967
1 14780U 84021A   07196.02091741  .00000014  00000-0  13112-4 0  2419
2 14780  98.1935 264.0197 0007872 120.8364 239.3615 14.57119774242984
1 14780U 84021A   07196.43293205  .00000102  00000-0  32751-4 0  2422
2 14780  98.1935 264.4253 0007886 119.9765 240.2221 14.57120337243049
1 14780U 84021A   07196.84494694  .00000072  00000-0  25990-4 0  2436
2 14780  98.1934 264.8305 0007908 118.9151 241.2831 14.57120278243102
1 14780U 84021A   07197.18829312  .00000065  00000-0  24440-4 0  2445
2 14780  98.1933 265.1685 0007927 118.0342 242.1664 14.57120323243150
1 14780U 84021A   07197.46296980  .00000034  00000-0  17519-4 0  2451
2 14780  98.1932 265.4386 0007947 117.3880 242.8129 14.57120244243190
1 14780U 84021A   07197.66897733  .00000022  00000-0  14908-4 0  2463
2 14780  98.1931 265.6413 0007941 116.7672 243.4342 14.57120259243222
1 14780U 84021A   07197.87498483  .00000005  00000-0  11150-4 0  2473
2 14780  98.1930 265.8439 0007969 116.2306 243.9697 14.57120067243258
1 14780U 84021A   07198.14966182  .00000020  00000-0  14484-4 0  2470
2 14780  98.1928 266.1143 0007957 115.4576 244.7458 14.57120283243296
1 14780U 84021A   07198.42433831  .00000006  00000-0  11432-4 0  2486
2 14780  98.1927 266.3845 0007959 114.7054 245.4970 14.57120224243338
1 14780U 84021A   07198.83635331 -.00000005  00000-0  89950-5 0  2504
2 14780  98.1926 266.7897 0007994 113.7099 246.4929 14.57120181243398
